UNKNOWN                 
1 81745U          26011.57759903  .00002375  00000+0  76119-3 0  9993
2 81745  71.0019 322.2035 0005750 206.3128 153.7717 14.40526510634047
UNKNOWN                 
1 81775U          26007.49459149  .00005626  00000+0  17344-2 0  9997
2 81775  82.9177 202.9347 0016371 170.0903 190.0616 14.41229713628989
UNKNOWN                 
1 81779U          26011.55907252  .00001679  00000+0  90597-1 0  9990
2 81779  54.5429 164.7730 1575585  80.8178 296.6761  9.34347629483109
UNKNOWN                 
1 81792U          26009.80546504  .00002708  00000+0  96287-3 0  9997
2 81792  65.8266  32.7928 0896393 270.0224  79.8231 13.11072761 83716
UNKNOWN                 
1 81812U          26011.24137098  .00000729  00000+0  54529-2 0  9998
2 81812 103.8171 291.7117 0245094 196.1661 163.1468 12.37650992544214
UNKNOWN                 
1 81816U          26009.01777051  .00001072  00000+0  83081-3 0  9991
2 81816  66.2385 228.1107 0176269 230.8535 127.6762 13.89547215613134
UNKNOWN                 
1 81819U          26008.20005150  .00001085  00000+0  76508-2 0  9997
2 81819 102.1730 110.7356 0031986  71.7146 288.7397 12.47717194551311
UNKNOWN                 
1 81824U          26010.95435123  .00004018  00000+0  14026-2 0  9991
2 81824  65.8424 257.5219 0043554 316.5255  43.2407 14.35789472628784
UNKNOWN                 
1 81833U          26007.71744187  .00000178  00000+0  61987-3 0  9996
2 81833  90.2405   3.4723 0026181 318.3047  41.6076 12.93737743455877
UNKNOWN                 
1 81844U          26008.43863736  .00002765  00000+0  97957-3 0  9990
2 81844  82.9084 260.6502 0063308  70.1458 290.6539 14.33127909626719
UNKNOWN                 
1 81845U          26010.77215523  .00002990  00000+0  33145-3 0  9995
2 81845  97.6745 201.7391 0086812 208.8892 165.9211 14.85297558653835
UNKNOWN                 
1 81864U          26009.34017716  .00003060  00000+0  11839-2 0  9995
2 81864  65.6735   2.3577 0765089   1.1801 359.0822 13.32480942554516
