CCSDS_OMM_VERS = 2.0
CREATION_DATE  = 
ORIGINATOR     = 

OBJECT_NAME    = UNKNOWN
OBJECT_ID      = 
CENTER_NAME    = EARTH
REF_FRAME      = TEME
TIME_SYSTEM    = UTC
MEAN_ELEMENT_THEORY = SGP/SGP4

EPOCH          = 2026-01-11T13:51:44.556192
MEAN_MOTION    = 14.40526510
ECCENTRICITY   = .000575
INCLINATION    = 71.0019
RA_OF_ASC_NODE = 322.2035
ARG_OF_PERICENTER = 206.3128
MEAN_ANOMALY   = 153.7717

EPHEMERIS_TYPE = 0
CLASSIFICATION_TYPE = U
NORAD_CAT_ID   = 81745
ELEMENT_SET_NO = 999
REV_AT_EPOCH   = 63404
BSTAR          = .76119E-3
MEAN_MOTION_DOT = .2375E-4
MEAN_MOTION_DDOT = 0

CCSDS_OMM_VERS = 2.0
CREATION_DATE  = 
ORIGINATOR     = 

OBJECT_NAME    = UNKNOWN
OBJECT_ID      = 
CENTER_NAME    = EARTH
REF_FRAME      = TEME
TIME_SYSTEM    = UTC
MEAN_ELEMENT_THEORY = SGP/SGP4

EPOCH          = 2026-01-07T11:52:12.704736
MEAN_MOTION    = 14.41229713
ECCENTRICITY   = .0016371
INCLINATION    = 82.9177
RA_OF_ASC_NODE = 202.9347
ARG_OF_PERICENTER = 170.0903
MEAN_ANOMALY   = 190.0616

EPHEMERIS_TYPE = 0
CLASSIFICATION_TYPE = U
NORAD_CAT_ID   = 81775
ELEMENT_SET_NO = 999
REV_AT_EPOCH   = 62898
BSTAR          = .17344E-2
MEAN_MOTION_DOT = .5626E-4
MEAN_MOTION_DDOT = 0

CCSDS_OMM_VERS = 2.0
CREATION_DATE  = 
ORIGINATOR     = 

OBJECT_NAME    = UNKNOWN
OBJECT_ID      = 
CENTER_NAME    = EARTH
REF_FRAME      = TEME
TIME_SYSTEM    = UTC
MEAN_ELEMENT_THEORY = SGP/SGP4

EPOCH          = 2026-01-11T13:25:03.865728
MEAN_MOTION    = 9.34347629
ECCENTRICITY   = .1575585
INCLINATION    = 54.5429
RA_OF_ASC_NODE = 164.7730
ARG_OF_PERICENTER = 80.8178
MEAN_ANOMALY   = 296.6761

EPHEMERIS_TYPE = 0
CLASSIFICATION_TYPE = U
NORAD_CAT_ID   = 81779
ELEMENT_SET_NO = 999
REV_AT_EPOCH   = 48310
BSTAR          = .90597E-1
MEAN_MOTION_DOT = .1679E-4
MEAN_MOTION_DDOT = 0

CCSDS_OMM_VERS = 2.0
CREATION_DATE  = 
ORIGINATOR     = 

OBJECT_NAME    = UNKNOWN
OBJECT_ID      = 
CENTER_NAME    = EARTH
REF_FRAME      = TEME
TIME_SYSTEM    = UTC
MEAN_ELEMENT_THEORY = SGP/SGP4

EPOCH          = 2026-01-09T19:19:52.179456
MEAN_MOTION    = 13.11072761
ECCENTRICITY   = .0896393
INCLINATION    = 65.8266
RA_OF_ASC_NODE = 32.7928
ARG_OF_PERICENTER = 270.0224
MEAN_ANOMALY   = 79.8231

EPHEMERIS_TYPE = 0
CLASSIFICATION_TYPE = U
NORAD_CAT_ID   = 81792
ELEMENT_SET_NO = 999
REV_AT_EPOCH   = 8371
BSTAR          = .96287E-3
MEAN_MOTION_DOT = .2708E-4
MEAN_MOTION_DDOT = 0

CCSDS_OMM_VERS = 2.0
CREATION_DATE  = 
ORIGINATOR     = 

OBJECT_NAME    = UNKNOWN
OBJECT_ID      = 
CENTER_NAME    = EARTH
REF_FRAME      = TEME
TIME_SYSTEM    = UTC
MEAN_ELEMENT_THEORY = SGP/SGP4

EPOCH          = 2026-01-11T05:47:34.452672
MEAN_MOTION    = 12.37650992
ECCENTRICITY   = .0245094
INCLINATION    = 103.8171
RA_OF_ASC_NODE = 291.7117
ARG_OF_PERICENTER = 196.1661
MEAN_ANOMALY   = 163.1468

EPHEMERIS_TYPE = 0
CLASSIFICATION_TYPE = U
NORAD_CAT_ID   = 81812
ELEMENT_SET_NO = 999
REV_AT_EPOCH   = 54421
BSTAR          = .54529E-2
MEAN_MOTION_DOT = .729E-5
MEAN_MOTION_DDOT = 0

CCSDS_OMM_VERS = 2.0
CREATION_DATE  = 
ORIGINATOR     = 

OBJECT_NAME    = UNKNOWN
OBJECT_ID      = 
CENTER_NAME    = EARTH
REF_FRAME      = TEME
TIME_SYSTEM    = UTC
MEAN_ELEMENT_THEORY = SGP/SGP4

EPOCH          = 2026-01-09T00:25:35.372064
MEAN_MOTION    = 13.89547215
ECCENTRICITY   = .0176269
INCLINATION    = 66.2385
RA_OF_ASC_NODE = 228.1107
ARG_OF_PERICENTER = 230.8535
MEAN_ANOMALY   = 127.6762

EPHEMERIS_TYPE = 0
CLASSIFICATION_TYPE = U
NORAD_CAT_ID   = 81816
ELEMENT_SET_NO = 999
REV_AT_EPOCH   = 61313
BSTAR          = .83081E-3
MEAN_MOTION_DOT = .1072E-4
MEAN_MOTION_DDOT = 0

CCSDS_OMM_VERS = 2.0
CREATION_DATE  = 
ORIGINATOR     = 

OBJECT_NAME    = UNKNOWN
OBJECT_ID      = 
CENTER_NAME    = EARTH
REF_FRAME      = TEME
TIME_SYSTEM    = UTC
MEAN_ELEMENT_THEORY = SGP/SGP4

EPOCH          = 2026-01-08T04:48:04.449600
MEAN_MOTION    = 12.47717194
ECCENTRICITY   = .0031986
INCLINATION    = 102.1730
RA_OF_ASC_NODE = 110.7356
ARG_OF_PERICENTER = 71.7146
MEAN_ANOMALY   = 288.7397

EPHEMERIS_TYPE = 0
CLASSIFICATION_TYPE = U
NORAD_CAT_ID   = 81819
ELEMENT_SET_NO = 999
REV_AT_EPOCH   = 55131
BSTAR          = .76508E-2
MEAN_MOTION_DOT = .1085E-4
MEAN_MOTION_DDOT = 0

CCSDS_OMM_VERS = 2.0
CREATION_DATE  = 
ORIGINATOR     = 

OBJECT_NAME    = UNKNOWN
OBJECT_ID      = 
CENTER_NAME    = EARTH
REF_FRAME      = TEME
TIME_SYSTEM    = UTC
MEAN_ELEMENT_THEORY = SGP/SGP4

EPOCH          = 2026-01-10T22:54:15.946272
MEAN_MOTION    = 14.35789472
ECCENTRICITY   = .0043554
INCLINATION    = 65.8424
RA_OF_ASC_NODE = 257.5219
ARG_OF_PERICENTER = 316.5255
MEAN_ANOMALY   = 43.2407

EPHEMERIS_TYPE = 0
CLASSIFICATION_TYPE = U
NORAD_CAT_ID   = 81824
ELEMENT_SET_NO = 999
REV_AT_EPOCH   = 62878
BSTAR          = .14026E-2
MEAN_MOTION_DOT = .4018E-4
MEAN_MOTION_DDOT = 0

CCSDS_OMM_VERS = 2.0
CREATION_DATE  = 
ORIGINATOR     = 

OBJECT_NAME    = UNKNOWN
OBJECT_ID      = 
CENTER_NAME    = EARTH
REF_FRAME      = TEME
TIME_SYSTEM    = UTC
MEAN_ELEMENT_THEORY = SGP/SGP4

EPOCH          = 2026-01-07T17:13:06.977568
MEAN_MOTION    = 12.93737743
ECCENTRICITY   = .0026181
INCLINATION    = 90.2405
RA_OF_ASC_NODE = 3.4723
ARG_OF_PERICENTER = 318.3047
MEAN_ANOMALY   = 41.6076

EPHEMERIS_TYPE = 0
CLASSIFICATION_TYPE = U
NORAD_CAT_ID   = 81833
ELEMENT_SET_NO = 999
REV_AT_EPOCH   = 45587
BSTAR          = .61987E-3
MEAN_MOTION_DOT = .178E-5
MEAN_MOTION_DDOT = 0

CCSDS_OMM_VERS = 2.0
CREATION_DATE  = 
ORIGINATOR     = 

OBJECT_NAME    = UNKNOWN
OBJECT_ID      = 
CENTER_NAME    = EARTH
REF_FRAME      = TEME
TIME_SYSTEM    = UTC
MEAN_ELEMENT_THEORY = SGP/SGP4

EPOCH          = 2026-01-08T10:31:38.267904
MEAN_MOTION    = 14.33127909
ECCENTRICITY   = .0063308
INCLINATION    = 82.9084
RA_OF_ASC_NODE = 260.6502
ARG_OF_PERICENTER = 70.1458
MEAN_ANOMALY   = 290.6539

EPHEMERIS_TYPE = 0
CLASSIFICATION_TYPE = U
NORAD_CAT_ID   = 81844
ELEMENT_SET_NO = 999
REV_AT_EPOCH   = 62671
BSTAR          = .97957E-3
MEAN_MOTION_DOT = .2765E-4
MEAN_MOTION_DDOT = 0

CCSDS_OMM_VERS = 2.0
CREATION_DATE  = 
ORIGINATOR     = 

OBJECT_NAME    = UNKNOWN
OBJECT_ID      = 
CENTER_NAME    = EARTH
REF_FRAME      = TEME
TIME_SYSTEM    = UTC
MEAN_ELEMENT_THEORY = SGP/SGP4

EPOCH          = 2026-01-10T18:31:54.211872
MEAN_MOTION    = 14.85297558
ECCENTRICITY   = .0086812
INCLINATION    = 97.6745
RA_OF_ASC_NODE = 201.7391
ARG_OF_PERICENTER = 208.8892
MEAN_ANOMALY   = 165.9211

EPHEMERIS_TYPE = 0
CLASSIFICATION_TYPE = U
NORAD_CAT_ID   = 81845
ELEMENT_SET_NO = 999
REV_AT_EPOCH   = 65383
BSTAR          = .33145E-3
MEAN_MOTION_DOT = .299E-4
MEAN_MOTION_DDOT = 0

CCSDS_OMM_VERS = 2.0
CREATION_DATE  = 
ORIGINATOR     = 

OBJECT_NAME    = UNKNOWN
OBJECT_ID      = 
CENTER_NAME    = EARTH
REF_FRAME      = TEME
TIME_SYSTEM    = UTC
MEAN_ELEMENT_THEORY = SGP/SGP4

EPOCH          = 2026-01-09T08:09:51.306624
MEAN_MOTION    = 13.32480942
ECCENTRICITY   = .0765089
INCLINATION    = 65.6735
RA_OF_ASC_NODE = 2.3577
ARG_OF_PERICENTER = 1.1801
MEAN_ANOMALY   = 359.0822

EPHEMERIS_TYPE = 0
CLASSIFICATION_TYPE = U
NORAD_CAT_ID   = 81864
ELEMENT_SET_NO = 999
REV_AT_EPOCH   = 55451
BSTAR          = .11839E-2
MEAN_MOTION_DOT = .306E-4
MEAN_MOTION_DDOT = 0

